API VERSION: 1.2
API SOURCE: NASA/JPL Horizons API

*******************************************************************************
 Revised: April 12, 2021                 Earth                              399
 
 GEOPHYSICAL PROPERTIES (revised May 9, 2022):
  Vol. Mean Radius (km)    = 6371.01+-0.02   Mass x10^24 (kg)= 5.97219+-0.0006
  Equ. radius, km          = 6378.137        Mass layers:
  Polar axis, km           = 6356.752          Atmos         = 5.1   x 10^18 kg
  Flattening               = 1/298.257223563   oceans        = 1.4   x 10^21 kg
  Density, g/cm^3          = 5.51              crust         = 2.6   x 10^22 kg
  J2 (IERS 2010)           = 0.00108262545     mantle        = 4.043 x 10^24 kg
  g_p, m/s^2  (polar)      = 9.8321863685      outer core    = 1.835 x 10^24 kg
  g_e, m/s^2  (equatorial) = 9.7803267715      inner core    = 9.675 x 10^22 kg
  g_o, m/s^2               = 9.82022         Fluid core rad  = 3480 km
  GM, km^3/s^2             = 398600.435436   Inner core rad  = 1215 km
  GM 1-sigma, km^3/s^2     =      0.0014     Escape velocity = 11.186 km/s
  Rot. Rate (rad/s)        = 0.00007292115   Surface area:
  Mean sidereal day, hr    = 23.9344695944     land          = 1.48 x 10^8 km
  Mean solar day 2000.0, s = 86400.002         sea           = 3.62 x 10^8 km
  Mean solar day 1820.0, s = 86400.0         Love no., k2    = 0.299
  Moment of inertia        = 0.3308          Atm. pressure   = 1.0 bar
  Mean surface temp (Ts), K= 287.6           Volume, km^3    = 1.08321 x 10^12
  Mean effect. temp (Te), K= 255             Magnetic moment = 0.61 gauss Rp^3
  Geometric albedo         = 0.367           Vis. mag. V(1,0)= -3.86
  Solar Constant (W/m^2)   = 1367.6 (mean), 1414 (perihelion), 1322 (aphelion)
 HELIOCENTRIC ORBIT CHARACTERISTICS:
  Obliquity to orbit, deg  = 23.4392911  Sidereal orb period  = 1.0000174 y
  Orbital speed, km/s      = 29.79       Sidereal orb period  = 365.25636 d
  Mean daily motion, deg/d = 0.9856474   Hill's sphere radius = 234.9       
*******************************************************************************


*******************************************************************************
Ephemeris / API_USER Thu Feb 19 13:06:08 2026 Pasadena, USA      / Horizons
*******************************************************************************
Target body name: Earth (399)                     {source: DE441}
Center body name: Sun (10)                        {source: DE441}
Center-site name: BODY CENTER
*******************************************************************************
Start time      : A.D. 2025-Sep-21 15:02:00.0000 TDB
Stop  time      : A.D. 2025-Sep-24 15:02:00.0000 TDB
Step-size       : 60 minutes
*******************************************************************************
Center geodetic : 0.0, 0.0, 0.0                   {E-lon(deg),Lat(deg),Alt(km)}
Center cylindric: 0.0, 0.0, 0.0                   {E-lon(deg),Dxy(km),Dz(km)}
Center radii    : 695700.0, 695700.0, 695700.0 km {Equator_a, b, pole_c}
Output units    : AU-D
Calendar mode   : Mixed Julian/Gregorian
Output type     : GEOMETRIC cartesian states
Output format   : 3 (position, velocity, LT, range, range-rate)
Reference frame : Ecliptic of J2000.0
*******************************************************************************
JDTDB
   X     Y     Z
   VX    VY    VZ
   LT    RG    RR
*******************************************************************************
$$SOE
2460940.126388889 = A.D. 2025-Sep-21 15:02:00.0000 TDB 
 X = 1.003613374486227E+00 Y =-2.571983726681487E-02 Z =-3.438458157270484E-06
 VX= 1.623065089781621E-04 VY= 1.714104787713438E-02 VZ=-3.818954728739406E-07
 LT= 5.798290533577824E-03 RG= 1.003942884574857E+00 RR=-2.768802705449806E-04
2460940.168055556 = A.D. 2025-Sep-21 16:02:00.0000 TDB 
 X = 1.003619881133864E+00 Y =-2.500562038680361E-02 Z =-3.454387782530813E-06
 VX= 1.500124952686541E-04 VY= 1.714136081719228E-02 VZ=-3.827352815178061E-07
 LT= 5.798223890568672E-03 RG= 1.003931345695517E+00 RR=-2.769859101501152E-04
2460940.209722222 = A.D. 2025-Sep-21 17:02:00.0000 TDB 
 X = 1.003625875520715E+00 Y =-2.429139066089939E-02 Z =-3.470353491348902E-06
 VX= 1.377179931523527E-04 VY= 1.714166448001189E-02 VZ=-3.836274542604245E-07
 LT= 5.798157222157793E-03 RG= 1.003919802418005E+00 RR=-2.770913822082348E-04
2460940.251388889 = A.D. 2025-Sep-21 18:02:00.0000 TDB 
 X = 1.003631357626665E+00 Y =-2.357714847565159E-02 Z =-3.486357461853738E-06
 VX= 1.254230138367605E-04 VY= 1.714195886570674E-02 VZ=-3.845718123957401E-07
 LT= 5.798090528385949E-03 RG= 1.003908254749377E+00 RR=-2.771966830917045E-04
2460940.293055556 = A.D. 2025-Sep-21 19:02:00.0000 TDB 
 X = 1.003636327432063E+00 Y =-2.286289421760392E-02 Z =-3.502401864650787E-06
 VX= 1.131275685093858E-04 VY= 1.714224397443657E-02 VZ=-3.855681738269925E-07
 LT= 5.798023809294765E-03 RG= 1.003896702696842E+00 RR=-2.773018091916915E-04
2460940.334722222 = A.D. 2025-Sep-21 20:02:00.0000 TDB 
 X = 1.003640784917724E+00 Y =-2.214862827329247E-02 Z =-3.518488862699034E-06
 VX= 1.008316683374220E-04 VY= 1.714251980640686E-02 VZ=-3.866163530944163E-07
 LT= 5.797957064926730E-03 RG= 1.003885146267755E+00 RR=-2.774067569183285E-04
2460940.376388889 = A.D. 2025-Sep-21 21:02:00.0000 TDB 
 X = 1.003644730064928E+00 Y =-2.143435102924376E-02 Z =-3.534620611150681E-06
 VX= 8.853532446743686E-05 VY= 1.714278636186843E-02 VZ=-3.877161614316679E-07
 LT= 5.797890295325204E-03 RG= 1.003873585469626E+00 RR=-2.775115227008718E-04
2460940.418055556 = A.D. 2025-Sep-21 22:02:00.0000 TDB 
 X = 1.003648162855421E+00 Y =-2.072006287197307E-02 Z =-3.550799257218850E-06
 VX= 7.623854802506800E-05 VY= 1.714304364111712E-02 VZ=-3.888674067832654E-07
 LT= 5.797823500534398E-03 RG= 1.003862020310107E+00 RR=-2.776161029878587E-04
2460940.459722222 = A.D. 2025-Sep-21 23:02:00.0000 TDB 
 X = 1.003651083271410E+00 Y =-2.000576418798226E-02 Z =-3.567026940071752E-06
 VX= 6.394135011472541E-05 VY= 1.714329164449328E-02 VZ=-3.900698938774307E-07
 LT= 5.797756680599377E-03 RG= 1.003850450797002E+00 RR=-2.777204942472506E-04
2460940.501388889 = A.D. 2025-Sep-22 00:02:00.0000 TDB 
 X = 1.003653491295565E+00 Y =-1.929145536375820E-02 Z =-3.583305790649035E-06
 VX= 5.164374181930005E-05 VY= 1.714353037238141E-02 VZ=-3.913234242589189E-07
 LT= 5.797689835566049E-03 RG= 1.003838876938260E+00 RR=-2.778246929665816E-04
2460940.543055556 = A.D. 2025-Sep-22 01:02:00.0000 TDB 
 X = 1.003655386911016E+00 Y =-1.857713678577080E-02 Z =-3.599637931555171E-06
 VX= 3.934573419988215E-05 VY= 1.714375982520975E-02 VZ=-3.926277963177444E-07
 LT= 5.797622965481170E-03 RG= 1.003827298741977E+00 RR=-2.779286956530925E-04
2460940.584722222 = A.D. 2025-Sep-22 02:02:00.0000 TDB 
 X = 1.003656770101355E+00 Y =-1.786280884047113E-02 Z =-3.616025476966852E-06
 VX= 2.704733829548407E-05 VY= 1.714398000344986E-02 VZ=-3.939828053497109E-07
 LT= 5.797556070392338E-03 RG= 1.003815716216394E+00 RR=-2.780324988338635E-04
2460940.626388889 = A.D. 2025-Sep-22 03:02:00.0000 TDB 
 X = 1.003657640850634E+00 Y =-1.714847191428989E-02 Z =-3.632470532417432E-06
 VX= 1.474856512277258E-05 VY= 1.714419090761619E-02 VZ=-3.953882435923191E-07
 LT= 5.797489150347972E-03 RG= 1.003804129369893E+00 RR=-2.781360990559440E-04
2460940.668055556 = A.D. 2025-Sep-22 04:02:00.0000 TDB 
 X = 1.003657999143361E+00 Y =-1.643412639363532E-02 Z =-3.648975194748679E-06
 VX= 2.449425675807651E-06 VY= 1.714439253826570E-02 VZ=-3.968439002688816E-07
 LT= 5.797422205397332E-03 RG= 1.003792538211005E+00 RR=-2.782394928864692E-04
2460940.709722222 = A.D. 2025-Sep-22 05:02:00.0000 TDB 
 X = 1.003657844964505E+00 Y =-1.571977266489163E-02 Z =-3.665541551942688E-06
 VX=-9.850069074212076E-06 VY= 1.714458489599739E-02 VZ=-3.983495616285345E-07
 LT= 5.797355235590495E-03 RG= 1.003780942748400E+00 RR=-2.783426769127783E-04
2460940.751388889 = A.D. 2025-Sep-22 06:02:00.0000 TDB 
 X = 1.003657178299489E+00 Y =-1.500541111441718E-02 Z =-3.682171683045615E-06
 VX=-2.214990817919598E-05 VY= 1.714476798145193E-02 VZ=-3.999050110006116E-07
 LT= 5.797288240978356E-03 RG= 1.003769342990890E+00 RR=-2.784456477425261E-04
2460940.793055556 = A.D. 2025-Sep-22 07:02:00.0000 TDB 
 X = 1.003655999134193E+00 Y =-1.429104212854280E-02 Z =-3.698867657984805E-06
 VX=-3.445008071439954E-05 VY= 1.714494179531119E-02 VZ=-4.015100288192667E-07
 LT= 5.797221221612628E-03 RG= 1.003757738947429E+00 RR=-2.785484020037845E-04
2460940.834722222 = A.D. 2025-Sep-22 08:02:00.0000 TDB 
 X = 1.003654307454950E+00 Y =-1.357666609357005E-02 Z =-3.715631537477745E-06
 VX=-4.675057577865815E-05 VY= 1.714510633829786E-02 VZ=-4.031643926829780E-07
 LT= 5.797154177545833E-03 RG= 1.003746130627111E+00 RR=-2.786509363451448E-04
2460940.876388889 = A.D. 2025-Sep-22 09:02:00.0000 TDB 
 X = 1.003652103248549E+00 Y =-1.286228339576952E-02 Z =-3.732465372944127E-06
 VX=-5.905138249460903E-05 VY= 1.714526161117501E-02 VZ=-4.048678773884035E-07
 LT= 5.797087108831294E-03 RG= 1.003734518039168E+00 RR=-2.787532474358087E-04
2460940.918055556 = A.D. 2025-Sep-22 10:02:00.0000 TDB 
 X = 1.003649386502231E+00 Y =-1.214789442137920E-02 Z =-3.749371206333868E-06
 VX=-7.135249000890956E-05 VY= 1.714540761474562E-02 VZ=-4.066202549724443E-07
 LT= 5.797020015523130E-03 RG= 1.003722901192972E+00 RR=-2.788553319656775E-04
2460940.959722222 = A.D. 2025-Sep-22 11:02:00.0000 TDB 
 X = 1.003646157203688E+00 Y =-1.143349955660275E-02 Z =-3.766351070053185E-06
 VX=-8.365388749244681E-05 VY= 1.714554434985224E-02 VZ=-4.084212947707228E-07
 LT= 5.796952897676264E-03 RG= 1.003711280098030E+00 RR=-2.789571866454346E-04
2460941.001388889 = A.D. 2025-Sep-22 12:02:00.0000 TDB 
 X = 1.003642415341063E+00 Y =-1.071909918760795E-02 Z =-3.783406986850973E-06
 VX=-9.595556414053833E-05 VY= 1.714567181737649E-02 VZ=-4.102707634411790E-07
 LT= 5.796885755346401E-03 RG= 1.003699654763989E+00 RR=-2.790588082066211E-04
